TDRS 3                  
1 19548U 88091B   18105.13070110 -.00000300  00000-0  00000+0 0  9994
2 19548  14.4390   4.9128 0038129 317.4737 225.4663  1.00280057 95431
SKYNET 4C               
1 20776U 90079A   18104.38095705  .00000127  00000-0  00000+0 0  9997
2 20776  13.9297  13.1409 0002719 353.3824   6.5843  1.00273079101007
TDRS 5                  
1 21639U 91054B   18104.74353926  .00000086  00000-0  00000+0 0  9996
2 21639  14.5392  18.2745 0024979 346.2766 298.2972  1.00268898 97770
TDRS 6                  
1 22314U 93003B   18105.10577872 -.00000292  00000-0  00000+0 0  9992
2 22314  14.0969  21.2622 0007322 335.3105 198.7845  1.00267814 92442
ASTRA 1D                
1 23331U 94070A   18105.41014243 -.00000266  00000-0  00000+0 0  9990
2 23331   8.0076  47.1682 0003955 338.2895 252.7154  1.00272041 86235
BRASILSAT B2            
1 23536U 95016A   18104.40139154 -.00000279  00000-0  00000-0 0  9990
2 23536   7.6323  49.0921 0002346 342.0168 247.9281  1.00272492 84457
AMSC 1                  
1 23553U 95019A   18103.82953634 -.00000115  00000-0  00000+0 0  9992
2 23553  10.4422  37.3002 0005994   3.8218 356.1480  1.00272644 84226
TDRS 7                  
1 23613U 95035B   18104.73868919 -.00000197  00000-0  00000+0 0  9999
2 23613  15.0583  11.9653 0033343   5.0557 176.3390  1.00267578 83211
INMARSAT 3-F1           
1 23839U 96020A   18104.97815628  .00000005  00000-0  00000+0 0  9996
2 23839   4.5553  66.1064 0006203 318.8951 234.6869  1.00272035 80688
ASTRA 1F                
1 23842U 96021A   18105.14609295  .00000133  00000-0  00000+0 0  9994
2 23842   0.0621  42.4964 0003339 342.8801 274.7771  1.00271972 80409
MSAT M1                 
1 23846U 96022A   18103.86692485 -.00000085  00000-0  00000-0 0  9997
2 23846   8.1924  46.6439 0006202 339.0957  20.8596  1.00271960 80472
INMARSAT 3-F2           
1 24307U 96053A   18105.28518161 -.00000127  00000-0  00000+0 0  9996
2 24307   3.2428  76.1921 0007501 297.8383 276.5248  1.00272636 79092
AMC-1 (GE-1)            
1 24315U 96054A   18105.03225161  .00000064  00000-0  00000+0 0  9993
2 24315   2.2012  83.4716 0002651 281.7054  78.6712  1.00272065 79093
AFRICASAT-2 (MEASAT-2)  
1 24653U 96063B   18104.63387737 -.00000228  00000-0  00000-0 0  9995
2 24653   7.9334  47.5766 0007016 219.5290 311.8402  1.00271365 78521
INMARSAT 3-F3           
1 24674U 96070A   18105.26172994  .00000034  00000-0  00000+0 0  9996
2 24674   4.0242  70.3019 0005737 314.9485  90.4361  1.00274101 78030
AMC-2 (GE-2)            
1 24713U 97002A   18105.38035473 -.00000213  00000-0  00000+0 0  9999
2 24713   4.8936  64.3762 0004760 320.1852 231.0159  1.00271392 28393
INTELSAT 26 (IS-26)     
1 24732U 97007A   18104.90058341 -.00000011  00000-0  00000-0 0  9998
2 24732   7.9136  47.9245 0005749 359.6840 185.3921  1.00271744 42806
GALAXY 25 (G-25)        
1 24812U 97026A   18104.69533512 -.00000168  00000-0  00000+0 0  9994
2 24812   0.1250  92.8833 0003577 292.9880 334.1524  1.00271585 76420
INTELSAT 5 (IS-5)       
1 24916U 97046A   18104.19586347 -.00000145  00000-0  00000-0 0  9996
2 24916   4.1336  69.6103 0003266 323.6723  36.4316  1.00271368 75686
AMC-3 (GE-3)            
1 24936U 97050A   18104.78105225 -.00000264  00000-0  00000+0 0  9991
2 24936   1.0221  90.8951 0002571 297.7408  23.4326  1.00273137 75518
NSS-5                   
1 24957U 97053A   18105.08409608  .00000106  00000-0  00000+0 0  9997
2 24957   4.4191  67.7922 0003627 324.0927 252.0428  1.00272365 75300
ASTRA 1G                
1 25071U 97076A   18104.76681043  .00000104  00000-0  00000+0 0  9997
2 25071   2.9397  77.1838 0002992 310.1647 142.5132  1.00275404 74603
BRASILSAT B3            
1 25152U 98006A   18104.79761669 -.00000285  00000-0  00000-0 0  9999
2 25152   4.5969  66.7907 0002844 310.0512  50.0068  1.00273784 13583
INMARSAT 3-F5           
1 25153U 98006B   18105.37195172 -.00000290  00000-0  00000+0 0  9990
2 25153   3.1787  73.4211 0005106 317.8399 252.1093  1.00269015 73954
NSS-806                 
1 25239U 98014A   18105.49212610 -.00000284  00000-0  00000+0 0  9997
2 25239   0.0834  56.9947 0004466 331.5814 304.7016  1.00273526 73729
CHINASAT 5A (ZX 5A)     
1 25354U 98033A   18105.13787839 -.00000357  00000-0  00000+0 0  9998
2 25354   1.8815  85.3649 0003284 251.2852  41.7478  1.00268596 77306
THOR III                
1 25358U 98035A   18104.60827784 -.00000045  00000-0  00000-0 0  9994
2 25358   5.9355  57.3825 0002689 325.7970  34.2036  1.00271385 72914
INTELSAT 805 (IS-805)   
1 25371U 98037A   18104.75732410 -.00000036  00000-0  00000+0 0  9997
2 25371   0.6580  93.2539 0003265 300.9173 250.3382  1.00272472 72624
ASTRA 2A                
1 25462U 98050A   18104.87959788 -.00000365  00000-0  00000-0 0  9991
2 25462   0.0601 246.7575 0002158 135.5670 250.8310  1.00274314 16432
JCSAT-4A                
1 25630U 99006A   18104.81179582 -.00000206  00000-0  00000-0 0  9994
2 25630   2.9153  78.4788 0005298 297.9088 268.7782  1.00272989 20670
SKYNET 4E               
1 25639U 99009B   18104.11438240 -.00000031  00000-0  00000+0 0  9993
2 25639  10.3787  26.3409 0004056   0.7648 215.0423  1.00272006 70076
ASIASAT 3S              
1 25657U 99013A   18105.38908174 -.00000239  00000-0  00000+0 0  9996
2 25657   3.1240  76.8158 0003674 298.8475 113.9662  1.00271550 69896
NIMIQ 1                 
1 25740U 99027A   18105.19490343 -.00000204  00000-0  00000+0 0  9999
2 25740   0.0140 272.9154 0004785 122.8201 151.2142  1.00271050 69271
ASTRA 1H                
1 25785U 99033A   18104.91541691 -.00000278  00000-0  00000-0 0  9999
2 25785   4.4035  67.9473 0002661 305.6078  91.9512  1.00272138 21481
ABS-7                   
1 25894U 99046A   18105.35601507 -.00000368  00000-0  00000+0 0  9995
2 25894   0.0245 126.0424 0002509 251.2789  70.4197  1.00275512 67217
ABS-6                   
1 25924U 99053A   18104.99413069 -.00000125  00000-0  00000+0 0  9991
2 25924   0.0629  82.8816 0002596 302.7471 334.3904  1.00270816 67947
TELSTAR 12 (ORION 2)    
1 25949U 99059A   18104.63004703 -.00000067  00000-0  00000+0 0  9991
2 25949   1.5748  87.4413 0002840 293.6515 299.2785  1.00272305 67597
AMC-4 (GE-4)            
1 25954U 99060A   18104.81109234  .00000081  00000-0  00000+0 0  9999
2 25954   0.0587  82.9598 0002371 304.1017 332.9568  1.00272652 67551
GALAXY 11 (G-11)        
1 26038U 99071A   18105.22271312  .00000132  00000-0  00000+0 0  9995
2 26038   0.1207  86.0063 0000531 256.1280 346.2714  1.00270750 67177
SUPERBIRD-B2            
1 26095U 00012A   18104.75139081 -.00000098  00000-0  00000-0 0  9991
2 26095   1.0470  91.6689 0003510 304.6259 239.0333  1.00272093 15253
ASIASTAR                
1 26107U 00016A   18104.87984231 -.00000336  00000-0  00000-0 0  9992
2 26107   2.3002  81.0674 0004221 300.4205 243.2666  1.00269415 65990
EUTELSAT 80A            
1 26369U 00028A   18104.78170274 -.00000107  00000-0  00000-0 0  9995
2 26369   1.6479  84.9731 0006594 298.8245  87.8121  1.00272544 65507
TDRS 8                  
1 26388U 00034A   18104.33748036 -.00000231  00000-0  00000-0 0  9999
2 26388   7.9873  53.3562 0009907 289.4943  70.3896  1.00270785 65241
ECHOSTAR 6              
1 26402U 00038A   18104.48907392 -.00000150  00000-0  00000+0 0  9997
2 26402   4.7516  65.5568 0003448 284.6903 292.2268  1.00270788 64975
INTELSAT 9 (IS-9)       
1 26451U 00043A   18105.29490361 -.00000219  00000-0  00000+0 0  9996
2 26451   4.1215  69.8149 0003076 330.0183 240.2473  1.00271633 64919
BRASILSAT B4            
1 26469U 00046A   18103.92664298 -.00000174  00000-0  00000-0 0  9999
2 26469   2.2823  83.2963 0002961 305.1448  55.2394  1.00271452 65023
NILESAT 102             
1 26470U 00046B   18104.72225530 -.00000063  00000-0  00000+0 0  9998
2 26470   2.3113  82.2320 0004601 297.3807  76.2264  1.00272964 64700
ASTRA 2B                
1 26494U 00054A   18104.86331562 -.00000157  00000-0  00000-0 0  9996
2 26494   2.8305  77.8541 0006785 320.9660  95.3622  1.00273037 16950
AMC-7 (GE-7)            
1 26495U 00054B   18103.81405864  .00000081  00000-0  00000-0 0  9993
2 26495   0.0925  88.5430 0001527 244.0002  27.4529  1.00273612 64291
NSS-11 (AAP-1)          
1 26554U 00059A   18104.75871987  .00000019  00000-0  00000+0 0  9991
2 26554   0.0524  72.0411 0002673 331.2400 248.7321  1.00272674 64243
N-SAT-110 (JCSAT-110)   
1 26559U 00060A   18104.95064068 -.00000357  00000-0  00000-0 0  9991
2 26559   0.0816  91.7994 0001224   0.5300 203.0432  1.00272561 11347
AMC-6 (GE-6)            
1 26580U 00067A   18105.30025272 -.00000222  00000-0  00000+0 0  9996
2 26580   0.0533  67.4439 0002657 342.2008 178.8615  1.00272835 64055
INTELSAT 12 (IS-12)     
1 26590U 00068A   18104.73869135  .00000132  00000-0  00000+0 0  9997
2 26590   1.1302  90.9480 0003550 319.6423 103.1678  1.00272626 63867
INTELSAT 1R (IS-1R)     
1 26608U 00072A   18105.38750987 -.00000142  00000-0  00000+0 0  9990
2 26608   0.9487  92.2888 0002361 279.6438 128.1518  1.00271794 63725
ANIK F1                 
1 26624U 00076A   18103.73739242 -.00000081  00000-0  00000+0 0  9992
2 26624   0.0140 188.3520 0001579 239.6257 292.0428  1.00271598 63784
ASTRA 2D                
1 26638U 00081A   18104.46242261  .00000045  00000-0  00000+0 0  9993
2 26638   4.2319  68.6421 0001884 305.6425  54.4522  1.00270462 63451
AMC-8 (GE-8)            
1 26639U 00081B   18104.69582285  .00000098  00000-0  00000+0 0  9990
2 26639   0.0581  78.7093 0001693 251.2319 344.3483  1.00272173 63335
SKYNET 4F               
1 26695U 01005B   18104.20948684 -.00000249  00000-0  00000+0 0  9994
2 26695   9.2273  34.5584 0002315 343.9870 225.2564  1.00272728 62932
EUTELSAT 33C            
1 26719U 01011A   18105.15462646  .00000150  00000-0  00000+0 0  9992
2 26719   0.1894  79.1073 0006374 320.0730 252.8476  1.00274167 62641
